CCSDS_OMM_VERS = 2.0
CREATION_DATE  = 
ORIGINATOR     = 

OBJECT_NAME    = DRAGONFLY
OBJECT_ID      = 1998-067XH
CENTER_NAME    = EARTH
REF_FRAME      = TEME
TIME_SYSTEM    = UTC
MEAN_ELEMENT_THEORY = SGP/SGP4

EPOCH          = 2026-01-15T06:33:51.646752
MEAN_MOTION    = 15.89523578
ECCENTRICITY   = .00079686
INCLINATION    = 51.6203
RA_OF_ASC_NODE = 322.1329
ARG_OF_PERICENTER = 114.7299
MEAN_ANOMALY   = 245.4537

EPHEMERIS_TYPE = 0
CLASSIFICATION_TYPE = U
NORAD_CAT_ID   = 65729
ELEMENT_SET_NO = 999
REV_AT_EPOCH   = 1846
BSTAR          = .11780315E-2
MEAN_MOTION_DOT = .350944E-2
MEAN_MOTION_DDOT = .56380001E-4

CCSDS_OMM_VERS = 2.0
CREATION_DATE  = 
ORIGINATOR     = 

OBJECT_NAME    = 1998-067XK
OBJECT_ID      = 1998-067XK
CENTER_NAME    = EARTH
REF_FRAME      = TEME
TIME_SYSTEM    = UTC
MEAN_ELEMENT_THEORY = SGP/SGP4

EPOCH          = 2026-01-15T05:24:13.793760
MEAN_MOTION    = 15.73858825
ECCENTRICITY   = .0004773
INCLINATION    = 51.6285
RA_OF_ASC_NODE = 326.3818
ARG_OF_PERICENTER = 83.9855
MEAN_ANOMALY   = 276.1687

EPHEMERIS_TYPE = 0
CLASSIFICATION_TYPE = U
NORAD_CAT_ID   = 65731
ELEMENT_SET_NO = 999
REV_AT_EPOCH   = 1840
BSTAR          = .77471691E-3
MEAN_MOTION_DOT = .112984E-2
MEAN_MOTION_DDOT = 0

CCSDS_OMM_VERS = 2.0
CREATION_DATE  = 
ORIGINATOR     = 

OBJECT_NAME    = RSP-03
OBJECT_ID      = 1998-067XL
CENTER_NAME    = EARTH
REF_FRAME      = TEME
TIME_SYSTEM    = UTC
MEAN_ELEMENT_THEORY = SGP/SGP4

EPOCH          = 2026-01-15T23:02:35.693376
MEAN_MOTION    = 15.80504075
ECCENTRICITY   = .00058069
INCLINATION    = 51.6252
RA_OF_ASC_NODE = 320.7589
ARG_OF_PERICENTER = 99.2542
MEAN_ANOMALY   = 260.9117

EPHEMERIS_TYPE = 0
CLASSIFICATION_TYPE = U
NORAD_CAT_ID   = 65732
ELEMENT_SET_NO = 999
REV_AT_EPOCH   = 1855
BSTAR          = .92433808E-3
MEAN_MOTION_DOT = .183006E-2
MEAN_MOTION_DDOT = 0

CCSDS_OMM_VERS = 2.0
CREATION_DATE  = 
ORIGINATOR     = 

OBJECT_NAME    = GHS-01
OBJECT_ID      = 1998-067XM
CENTER_NAME    = EARTH
REF_FRAME      = TEME
TIME_SYSTEM    = UTC
MEAN_ELEMENT_THEORY = SGP/SGP4

EPOCH          = 2026-01-15T05:19:29.888544
MEAN_MOTION    = 16.03499221
ECCENTRICITY   = .0007868
INCLINATION    = 51.6215
RA_OF_ASC_NODE = 320.2725
ARG_OF_PERICENTER = 133.1453
MEAN_ANOMALY   = 227.0217

EPHEMERIS_TYPE = 0
CLASSIFICATION_TYPE = U
NORAD_CAT_ID   = 65733
ELEMENT_SET_NO = 999
REV_AT_EPOCH   = 1849
BSTAR          = .1334E-2
MEAN_MOTION_DOT = .858841E-2
MEAN_MOTION_DDOT = .37858E-3

CCSDS_OMM_VERS = 2.0
CREATION_DATE  = 
ORIGINATOR     = 

OBJECT_NAME    = YOTSUBA-KULOVER
OBJECT_ID      = 1998-067XN
CENTER_NAME    = EARTH
REF_FRAME      = TEME
TIME_SYSTEM    = UTC
MEAN_ELEMENT_THEORY = SGP/SGP4

EPOCH          = 2026-01-15T22:31:37.441920
MEAN_MOTION    = 15.64983829
ECCENTRICITY   = .00041189
INCLINATION    = 51.6289
RA_OF_ASC_NODE = 327.4101
ARG_OF_PERICENTER = 109.4425
MEAN_ANOMALY   = 250.7016

EPHEMERIS_TYPE = 0
CLASSIFICATION_TYPE = U
NORAD_CAT_ID   = 65941
ELEMENT_SET_NO = 999
REV_AT_EPOCH   = 1520
BSTAR          = .65884403E-3
MEAN_MOTION_DOT = .65968E-3
MEAN_MOTION_DDOT = 0

CCSDS_OMM_VERS = 2.0
CREATION_DATE  = 
ORIGINATOR     = 

OBJECT_NAME    = BOTAN
OBJECT_ID      = 1998-067XP
CENTER_NAME    = EARTH
REF_FRAME      = TEME
TIME_SYSTEM    = UTC
MEAN_ELEMENT_THEORY = SGP/SGP4

EPOCH          = 2026-01-15T23:04:46.739712
MEAN_MOTION    = 15.72014319
ECCENTRICITY   = .00048569
INCLINATION    = 51.6265
RA_OF_ASC_NODE = 325.3009
ARG_OF_PERICENTER = 110.4461
MEAN_ANOMALY   = 249.7059

EPHEMERIS_TYPE = 0
CLASSIFICATION_TYPE = U
NORAD_CAT_ID   = 65942
ELEMENT_SET_NO = 999
REV_AT_EPOCH   = 1523
BSTAR          = .91488528E-3
MEAN_MOTION_DOT = .123552E-2
MEAN_MOTION_DDOT = 0

CCSDS_OMM_VERS = 2.0
CREATION_DATE  = 
ORIGINATOR     = 

OBJECT_NAME    = E-KAGAKU-1
OBJECT_ID      = 1998-067XQ
CENTER_NAME    = EARTH
REF_FRAME      = TEME
TIME_SYSTEM    = UTC
MEAN_ELEMENT_THEORY = SGP/SGP4

EPOCH          = 2026-01-15T05:39:59.670720
MEAN_MOTION    = 15.64879567
ECCENTRICITY   = .00027263
INCLINATION    = 51.6303
RA_OF_ASC_NODE = 330.9751
ARG_OF_PERICENTER = 107.2326
MEAN_ANOMALY   = 252.8968

EPHEMERIS_TYPE = 0
CLASSIFICATION_TYPE = U
NORAD_CAT_ID   = 65943
ELEMENT_SET_NO = 999
REV_AT_EPOCH   = 1509
BSTAR          = .66500136E-3
MEAN_MOTION_DOT = .66302E-3
MEAN_MOTION_DDOT = 0

CCSDS_OMM_VERS = 2.0
CREATION_DATE  = 
ORIGINATOR     = 

OBJECT_NAME    = HRC MONOBLOCK CAMERA
OBJECT_ID      = 1998-067XR
CENTER_NAME    = EARTH
REF_FRAME      = TEME
TIME_SYSTEM    = UTC
MEAN_ELEMENT_THEORY = SGP/SGP4

EPOCH          = 2026-01-15T21:29:47.651424
MEAN_MOTION    = 15.56711839
ECCENTRICITY   = .00010795
INCLINATION    = 51.6308
RA_OF_ASC_NODE = 330.8739
ARG_OF_PERICENTER = 7.7196
MEAN_ANOMALY   = 352.3812

EPHEMERIS_TYPE = 0
CLASSIFICATION_TYPE = U
NORAD_CAT_ID   = 66052
ELEMENT_SET_NO = 999
REV_AT_EPOCH   = 1415
BSTAR          = .38450939E-3
MEAN_MOTION_DOT = .27598E-3
MEAN_MOTION_DDOT = 0

CCSDS_OMM_VERS = 2.0
CREATION_DATE  = 
ORIGINATOR     = 

OBJECT_NAME    = HTV-X1
OBJECT_ID      = 2025-241A
CENTER_NAME    = EARTH
REF_FRAME      = TEME
TIME_SYSTEM    = UTC
MEAN_ELEMENT_THEORY = SGP/SGP4

EPOCH          = 2026-01-15T20:29:11.529888
MEAN_MOTION    = 15.49315338
ECCENTRICITY   = .00077688
INCLINATION    = 51.6334
RA_OF_ASC_NODE = 333.5896
ARG_OF_PERICENTER = 22.8636
MEAN_ANOMALY   = 337.2697

EPHEMERIS_TYPE = 0
CLASSIFICATION_TYPE = U
NORAD_CAT_ID   = 66174
ELEMENT_SET_NO = 999
REV_AT_EPOCH   = 51
BSTAR          = .16718873E-3
MEAN_MOTION_DOT = .8878E-4
MEAN_MOTION_DDOT = 0

CCSDS_OMM_VERS = 2.0
CREATION_DATE  = 
ORIGINATOR     = 

OBJECT_NAME    = SZ-21 MODULE
OBJECT_ID      = 2025-246C
CENTER_NAME    = EARTH
REF_FRAME      = TEME
TIME_SYSTEM    = UTC
MEAN_ELEMENT_THEORY = SGP/SGP4

EPOCH          = 2026-01-15T18:38:37.661856
MEAN_MOTION    = 15.64536487
ECCENTRICITY   = .00021606
INCLINATION    = 41.4742
RA_OF_ASC_NODE = 168.0969
ARG_OF_PERICENTER = 179.3980
MEAN_ANOMALY   = 180.6863

EPHEMERIS_TYPE = 0
CLASSIFICATION_TYPE = U
NORAD_CAT_ID   = 66515
ELEMENT_SET_NO = 999
REV_AT_EPOCH   = 977
BSTAR          = .21926329E-3
MEAN_MOTION_DOT = .21472E-3
MEAN_MOTION_DDOT = 0

CCSDS_OMM_VERS = 2.0
CREATION_DATE  = 
ORIGINATOR     = 

OBJECT_NAME    = SHENZHOU-22
OBJECT_ID      = 2025-272A
CENTER_NAME    = EARTH
REF_FRAME      = TEME
TIME_SYSTEM    = UTC
MEAN_ELEMENT_THEORY = SGP/SGP4

EPOCH          = 2026-01-15T18:36:27.035424
MEAN_MOTION    = 15.60536581
ECCENTRICITY   = .00113468
INCLINATION    = 41.4651
RA_OF_ASC_NODE = 169.8546
ARG_OF_PERICENTER = 291.9793
MEAN_ANOMALY   = 67.9840

EPHEMERIS_TYPE = 0
CLASSIFICATION_TYPE = U
NORAD_CAT_ID   = 66645
ELEMENT_SET_NO = 999
REV_AT_EPOCH   = 26764
BSTAR          = .1540818E-3
MEAN_MOTION_DOT = .12798E-3
MEAN_MOTION_DDOT = 0

CCSDS_OMM_VERS = 2.0
CREATION_DATE  = 
ORIGINATOR     = 

OBJECT_NAME    = SOYUZ-MS 28
OBJECT_ID      = 2025-275A
CENTER_NAME    = EARTH
REF_FRAME      = TEME
TIME_SYSTEM    = UTC
MEAN_ELEMENT_THEORY = SGP/SGP4

EPOCH          = 2026-01-15T20:29:11.529888
MEAN_MOTION    = 15.49315338
ECCENTRICITY   = .00077688
INCLINATION    = 51.6334
RA_OF_ASC_NODE = 333.5896
ARG_OF_PERICENTER = 22.8636
MEAN_ANOMALY   = 337.2697

EPHEMERIS_TYPE = 0
CLASSIFICATION_TYPE = U
NORAD_CAT_ID   = 66664
ELEMENT_SET_NO = 999
REV_AT_EPOCH   = 128
BSTAR          = .16718873E-3
MEAN_MOTION_DOT = .8878E-4
MEAN_MOTION_DDOT = 0

