DRAGONFLY               
1 65729U 98067XH  26015.27351443  .00350944  56380-4  11780-2 0  9992
2 65729  51.6203 322.1329 0007968 114.7299 245.4537 15.89523578 18465
1998-067XK              
1 65731U 98067XK  26015.22515965  .00112984  00000+0  77472-3 0  9995
2 65731  51.6285 326.3818 0004773  83.9855 276.1687 15.73858825 18403
RSP-03                  
1 65732U 98067XL  26015.96013534  .00183006  00000+0  92434-3 0  9990
2 65732  51.6252 320.7589 0005806  99.2542 260.9117 15.80504075 18550
GHS-01                  
1 65733U 98067XM  26015.22187371  .00858841  37858-3  13340-2 0  9990
2 65733  51.6215 320.2725 0007868 133.1453 227.0217 16.03499221 18496
YOTSUBA-KULOVER         
1 65941U 98067XN  26015.93862780  .00065968  00000+0  65884-3 0  9999
2 65941  51.6289 327.4101 0004118 109.4425 250.7016 15.64983829 15209
BOTAN                   
1 65942U 98067XP  26015.96165208  .00123552  00000+0  91489-3 0  9998
2 65942  51.6265 325.3009 0004856 110.4461 249.7059 15.72014319 15235
E-KAGAKU-1              
1 65943U 98067XQ  26015.23610730  .00066302  00000+0  66500-3 0  9999
2 65943  51.6303 330.9751 0002726 107.2326 252.8968 15.64879567 15096
HRC MONOBLOCK CAMERA    
1 66052U 98067XR  26015.89569041  .00027598  00000+0  38451-3 0  9999
2 66052  51.6308 330.8739 0001079   7.7196 352.3812 15.56711839 14155
HTV-X1                  
1 66174U 25241A   26015.85360567  .00008878  00000+0  16719-3 0  9999
2 66174  51.6334 333.5896 0007768  22.8636 337.2697 15.49315338   515
SZ-21 MODULE            
1 66515U 25246C   26015.77682479  .00021472  00000+0  21926-3 0  9994
2 66515  41.4742 168.0969 0002160 179.3980 180.6863 15.64536487  9776
SHENZHOU-22             
1 66645U 25272A   26015.77531291  .00012798  00000+0  15408-3 0  9991
2 66645  41.4651 169.8546 0011346 291.9793  67.9840 15.60536581267643
SOYUZ-MS 28             
1 66664U 25275A   26015.85360567  .00008878  00000+0  16719-3 0  9990
2 66664  51.6334 333.5896 0007768  22.8636 337.2697 15.49315338  1284
